[{"OBJECT_NAME":"STARLINK-3252","OBJECT_ID":"2021-115K","EPOCH":"2026-03-09T12:22:59.290464","MEAN_MOTION":15.08849963,"ECCENTRICITY":0.00012891,"INCLINATION":53.2181,"RA_OF_ASC_NODE":159.9016,"ARG_OF_PERICENTER":93.3486,"MEAN_ANOMALY":266.7653,"EPHEMERIS_TYPE":0,"CLASSIFICATION_TYPE":"U","NORAD_CAT_ID":49733,"ELEMENT_SET_NO":999,"REV_AT_EPOCH":23536,"BSTAR":6.1263281e-5,"MEAN_MOTION_DOT":6.87e-6,"MEAN_MOTION_DDOT":0},{"OBJECT_NAME":"ELECTRON KICK STAGE R\/B","OBJECT_ID":"2023-035A","EPOCH":"2026-03-09T00:22:03.988416","MEAN_MOTION":15.09409521,"ECCENTRICITY":0.00017263,"INCLINATION":44.1756,"RA_OF_ASC_NODE":311.3301,"ARG_OF_PERICENTER":9.8979,"MEAN_ANOMALY":350.1918,"EPHEMERIS_TYPE":0,"CLASSIFICATION_TYPE":"U","NORAD_CAT_ID":55908,"ELEMENT_SET_NO":999,"REV_AT_EPOCH":16322,"BSTAR":0.00066616987,"MEAN_MOTION_DOT":0.00010608,"MEAN_MOTION_DDOT":0}]
